     2.11           N: GPS NAV DATA                         RINEX VERSION / TYPE
teqc  2019Feb25                         20221121 12:26:23UTCPGM / RUN BY / DATE
OSX ker:10.11.6|Core i5|gcc 4.3 -m64|OSX ker:10.10+|=+      COMMENT
    4.6566D-09  1.4901D-08 -5.9605D-08 -1.1921D-07          ION ALPHA
    7.7824D+04  4.9152D+04 -6.5536D+04 -2.6214D+05          ION BETA
   -5.587935447693D-09-1.865174681370D-14   405504     1545 DELTA-UTC: A0,A1,T,W
                                                            END OF HEADER
31 09  8 19 16  0  0.0-6.488338112831D-05-1.136868377216D-13 0.000000000000D+00
    4.500000000000D+01 6.603125000000D+01 4.840558771560D-09-2.855156858801D+00
    3.566965460777D-06 7.002680911683D-03 8.363276720047D-07 5.153767391205D+03
    3.168000000000D+05-1.862645149231D-09 1.239695780751D+00 1.154839992523D-07
    9.735099233045D-01 3.694062500000D+02-1.138175898920D+00-8.478567452081D-09
    3.392998474863D-10 1.000000000000D+00 1.545000000000D+03 0.000000000000D+00
    2.000000000000D+00 0.000000000000D+00-1.303851604462D-08 4.500000000000D+01
    3.096180000000D+05 4.000000000000D+00
20 09  8 19 16  0  0.0 7.437542080879D-05-9.094947017729D-13 0.000000000000D+00
    3.300000000000D+01-5.246875000000D+01 5.054853412077D-09 1.592193853151D+00
   -2.713873982430D-06 3.840174525976D-03 8.465722203255D-06 5.153783298492D+03
    3.168000000000D+05-1.303851604462D-08-8.790698993498D-01-1.173466444016D-07
    9.406586700265D-01 2.040312500000D+02 1.336238824053D+00-8.379277601974D-09
   -6.139541450831D-10 1.000000000000D+00 1.545000000000D+03 0.000000000000D+00
    2.000000000000D+00 0.000000000000D+00-6.519258022308D-09 3.300000000000D+01
    3.096180000000D+05 4.000000000000D+00
14 09  8 19 16  0  0.0-6.296392530203D-05 5.343281372916D-12 0.000000000000D+00
    2.000000000000D+01 1.312187500000D+02 3.645508992939D-09-4.205623753453D-01
    6.858259439468D-06 4.791541025043D-03 1.206062734127D-05 5.153645023346D+03
    3.168000000000D+05 7.450580596924D-09 2.337489347528D-01 8.381903171539D-08
    9.883547323703D-01 1.659375000000D+02-2.166196206721D+00-7.672819603734D-09
    2.789401904071D-10 1.000000000000D+00 1.545000000000D+03 0.000000000000D+00
    2.000000000000D+00 0.000000000000D+00-9.313225746155D-09 2.000000000000D+01
    3.096180000000D+05 4.000000000000D+00
32 09  8 19 15 59 44.0 2.121813595295D-04-6.707523425575D-12 0.000000000000D+00
    9.000000000000D+00-3.756250000000D+01 4.406969282245D-09-1.931486155271D+00
   -1.631677150726D-06 1.322766509838D-02 1.034885644913D-05 5.153740373611D+03
    3.167840000000D+05-6.705522537231D-08-7.677427419897D-01 2.663582563400D-07
    9.627544705881D-01 1.793750000000D+02-1.131268024620D+00-7.919258440330D-09
   -6.328835049955D-10 1.000000000000D+00 1.545000000000D+03 0.000000000000D+00
    2.000000000000D+00 0.000000000000D+00-3.259629011154D-09 9.000000000000D+00
    3.096180000000D+05 4.000000000000D+00
12 09  8 19 16  0  0.0-2.320348285139D-04 5.911715561524D-12 0.000000000000D+00
    2.200000000000D+01-1.345625000000D+02 4.462685888780D-09-2.670993514790D+00
   -7.068738341331D-06 3.156076185405D-03 6.899237632751D-06 5.153599161148D+03
    3.168000000000D+05-8.195638656616D-08 2.294511239877D+00 7.264316082001D-08
    9.678475613644D-01 2.483125000000D+02-6.051823487540D-01-8.100694569301D-09
   -4.864488339751D-10 1.000000000000D+00 1.545000000000D+03 0.000000000000D+00
    2.000000000000D+00 0.000000000000D+00-1.164153218269D-08 2.200000000000D+01
    3.096180000000D+05 4.000000000000D+00
 4 09  8 19 16  0  0.0-2.267705276608D-04-1.705302565824D-11 0.000000000000D+00
    5.100000000000D+01 3.562500000000D+01 5.432726294857D-09 1.876446434349D+00
    1.814216375351D-06 8.671920746565D-03 4.941597580910D-06 5.153779064178D+03
    3.168000000000D+05-1.564621925354D-07-1.896394716520D+00 5.587935447693D-08
    9.397785799729D-01 2.785312500000D+02 5.022451948140D-01-8.615358864278D-09
    2.425101015191D-10 1.000000000000D+00 1.545000000000D+03 0.000000000000D+00
    2.000000000000D+00 0.000000000000D+00-6.053596735001D-09 5.100000000000D+01
    3.096180000000D+05 4.000000000000D+00
29 09  8 19 16  0  0.0 5.005067214370D-05 3.296918293927D-12 0.000000000000D+00
    2.100000000000D+01-3.500000000000D+00 4.207318108830D-09 2.664302209418D+00
   -1.899898052216D-07 3.208454232663D-03 1.333653926849D-05 5.153635307312D+03
    3.168000000000D+05-3.911554813385D-08-2.921219699635D+00 6.332993507385D-08
    9.605490484377D-01 1.195937500000D+02-1.282081535316D+00-7.724964632927D-09
    3.603721538038D-10 1.000000000000D+00 1.545000000000D+03 0.000000000000D+00
    2.000000000000D+00 0.000000000000D+00-8.847564458847D-09 2.100000000000D+01
    3.096180000000D+05 4.000000000000D+00
23 09  8 19 16  0  0.0 3.893785178661D-04-3.410605131648D-13 0.000000000000D+00
    6.300000000000D+01 1.080312500000D+02 3.973379792931D-09-1.070743778468D+00
    5.302950739861D-06 6.434111273848D-03 1.280941069126D-05 5.153587982178D+03
    3.168000000000D+05 7.450580596924D-09 1.997906343104D-01-1.005828380585D-07
    9.703072898791D-01 1.353437500000D+02 2.946203495053D+00-7.793896075627D-09
    2.903692379014D-10 1.000000000000D+00 1.545000000000D+03 0.000000000000D+00
    2.000000000000D+00 0.000000000000D+00-2.002343535423D-08 6.300000000000D+01
    3.099480000000D+05 4.000000000000D+00
 2 09  8 19 16  0  0.0 1.663616858423D-04 2.387423592154D-12 0.000000000000D+00
    6.600000000000D+01 3.259375000000D+01 5.353794435599D-09-9.829857045231D-01
    1.758337020874D-06 9.064752142876D-03 4.822388291359D-06 5.153687397003D+03
    3.168000000000D+05-5.029141902924D-08-1.914671064729D+00-2.048909664154D-07
    9.405947873198D-01 2.791562500000D+02 2.882629921975D+00-8.577857302187D-09
    3.914448766789D-10 1.000000000000D+00 1.545000000000D+03 0.000000000000D+00
    2.000000000000D+00 0.000000000000D+00-1.722946763039D-08 6.600000000000D+01
    3.100080000000D+05 4.000000000000D+00
32 09  8 19 15 59 28.0 2.121813595295D-04-6.707523425575D-12 0.000000000000D+00
    3.700000000000D+01-3.756250000000D+01 4.406969282245D-09-1.933819797802D+00
   -1.631677150726D-06 1.322766509838D-02 1.034885644913D-05 5.153740371704D+03
    3.167680000000D+05-6.705522537231D-08-7.677426147158D-01 2.663582563400D-07
    9.627544808285D-01 1.793750000000D+02-1.131268023157D+00-7.919258440330D-09
   -6.328835049955D-10 1.000000000000D+00 1.545000000000D+03 0.000000000000D+00
    2.000000000000D+00 0.000000000000D+00-3.259629011154D-09 3.700000000000D+01
    3.117480000000D+05 4.000000000000D+00
16 09  8 19 16  0  0.0 2.139341086149D-05-3.751665644813D-12 0.000000000000D+00
    4.200000000000D+01-1.532812500000D+02 4.532331646948D-09 1.201934743258D+00
   -7.787719368935D-06 5.317298229784D-03 6.400048732758D-06 5.153606901169D+03
    3.168000000000D+05 9.499490261078D-08 2.311578710120D+00 4.097819328308D-08
    9.692599956036D-01 2.549687500000D+02-2.880162334665D-01-8.252843764069D-09
   -6.246688771090D-10 1.000000000000D+00 1.545000000000D+03 0.000000000000D+00
    2.000000000000D+00 0.000000000000D+00-9.778887033463D-09 4.200000000000D+01
    3.119880000000D+05 4.000000000000D+00
30 09  8 19 15 59 44.0 1.700138673186D-04 2.955857780762D-12 0.000000000000D+00
    1.020000000000D+02-1.328125000000D+02 4.972349975478D-09 1.119688341914D+00
   -7.109716534615D-06 1.183775789104D-02 6.323680281639D-06 5.153684137344D+03
    3.167840000000D+05-2.831220626831D-07 2.245393696609D+00-7.078051567078D-08
    9.529175519495D-01 2.567812500000D+02 1.441759081704D+00-8.574285724845D-09
   -4.757341019492D-10 1.000000000000D+00 1.545000000000D+03 0.000000000000D+00
    2.000000000000D+00 0.000000000000D+00-8.381903171539D-09 1.020000000000D+02
    3.142980000000D+05 4.000000000000D+00
13 09  8 19 16  0  0.0 3.033918328583D-04 5.684341886081D-13 0.000000000000D+00
    4.400000000000D+01 1.112812500000D+02 3.526575467452D-09-3.876585286995D-01
    5.546957254410D-06 4.065805580467D-03 1.257285475731D-05 5.153669597626D+03
    3.168000000000D+05-3.539025783539D-08 2.537645272483D-01 1.117587089539D-08
    9.949021348788D-01 1.601562500000D+02 1.649843569144D+00-7.583887327920D-09
    2.964409193828D-10 1.000000000000D+00 1.545000000000D+03 0.000000000000D+00
    2.000000000000D+00 0.000000000000D+00-1.117587089539D-08 4.400000000000D+01
    3.145680000000D+05 4.000000000000D+00
24 09  8 19 16  0  0.0 2.136440016329D-04 3.069544618484D-12 0.000000000000D+00
    5.900000000000D+01 2.562500000000D+01 5.165929467412D-09 1.315255345939D+00
    1.350417733192D-06 6.561047746800D-03 4.129484295845D-06 5.153658926010D+03
    3.168000000000D+05 1.639127731323D-07-1.850216680380D+00 6.519258022308D-08
    9.499101946810D-01 2.921875000000D+02-6.409138390340D-01-8.441423047724D-09
    2.164375869228D-10 1.000000000000D+00 1.545000000000D+03 0.000000000000D+00
    2.000000000000D+00 0.000000000000D+00-1.396983861923D-09 5.900000000000D+01
    3.160680000000D+05 4.000000000000D+00
31 09  8 19 18  0  0.0-6.488384678960D-05-1.136868377216D-13 0.000000000000D+00
    5.100000000000D+01 6.250000000000D+01 4.782342060886D-09-1.805085964847D+00
    3.542751073837D-06 7.002544589341D-03 1.287087798119D-06 5.153767044067D+03
    3.240000000000D+05-7.078051567078D-08 1.239634727328D+00 8.381903171539D-08
    9.735124029506D-01 3.650312500000D+02-1.138121406685D+00-8.487139237702D-09
    3.550147877909D-10 1.000000000000D+00 1.545000000000D+03 0.000000000000D+00
    2.000000000000D+00 0.000000000000D+00-1.303851604462D-08 5.100000000000D+01
    3.168180000000D+05 4.000000000000D+00
